{"fetched_at":"2026-03-29T16:36:15Z","count":15609,"tles":[{"name":"KUIPER-00063","line1":"1 64523U 25134Z   26087.87081990  .00004287  00000+0  59085-3 0  9990","line2":"2 64523  51.9022 153.2848 0000370  36.0169 324.0819 14.79939000 42844","category":"Other"}]}